{
  "type": "Feature",
  "id": "N.47 Telupid",
  "properties": {
    "state": "Sabah",
    "parlimen": "P.183 Beluran",
    "dun": "N.47 Telupid",
    "code_state": 12,
    "code_parlimen": "P.183",
    "code_dun": "N.47",
    "code_state_dun": "12_N.47"
  },
  "geometry": {
    "type": "MultiPolygon",
    "coordinates": [
      [
        [
          [117.10025,5.89731],
          [117.09813,5.892],
          [117.09643,5.87338],
          [117.09771,5.8657],
          [117.10268,5.86158],
          [117.10666,5.84794],
          [117.11172,5.8424],
          [117.11744,5.84283],
          [117.12102,5.83668],
          [117.12388,5.82367],
          [117.13103,5.83654],
          [117.1379,5.83926],
          [117.14116,5.84376],
          [117.14726,5.84796],
          [117.14898,5.85521],
          [117.15127,5.85635],
          [117.15091,5.86472],
          [117.14762,5.86629],
          [117.14848,5.86801],
          [117.14262,5.8763],
          [117.14419,5.88288],
          [117.14762,5.88374],
          [117.15191,5.88932],
          [117.15921,5.88531],
          [117.16049,5.89189],
          [117.16622,5.89189],
          [117.1665,5.89532],
          [117.18876,5.91037],
          [117.19097,5.91318],
          [117.19172,5.92132],
          [117.1964,5.92957],
          [117.20809,5.93794],
          [117.21053,5.94139],
          [117.20995,5.94409],
          [117.23168,5.96023],
          [117.238,5.97051],
          [117.24969,5.97564],
          [117.2505,5.98608],
          [117.26499,5.98768],
          [117.27897,5.99244],
          [117.2808,5.99427],
          [117.27964,6.00031],
          [117.29308,6.00078],
          [117.29643,5.99704],
          [117.29628,5.99869],
          [117.29989,6.00048],
          [117.30175,5.99899],
          [117.30541,6.00053],
          [117.30701,5.99929],
          [117.31077,5.99988],
          [117.31263,5.99844],
          [117.31243,5.9955],
          [117.30921,5.99285],
          [117.31103,5.98821],
          [117.31781,5.98283],
          [117.33019,5.96872],
          [117.32854,5.96236],
          [117.33495,5.95674],
          [117.33625,5.9515],
          [117.34823,5.94839],
          [117.35635,5.94246],
          [117.35589,5.9394],
          [117.35359,5.93811],
          [117.35441,5.93392],
          [117.36042,5.93004],
          [117.35934,5.92792],
          [117.36234,5.92528],
          [117.36271,5.92192],
          [117.36808,5.91696],
          [117.36835,5.91363],
          [117.37181,5.91059],
          [117.37424,5.90449],
          [117.37822,5.90539],
          [117.38303,5.90418],
          [117.38761,5.91002],
          [117.39179,5.91282],
          [117.39587,5.91296],
          [117.39754,5.91647],
          [117.39986,5.91677],
          [117.40264,5.91355],
          [117.41162,5.90847],
          [117.41385,5.8989],
          [117.42507,5.8976],
          [117.42885,5.89162],
          [117.43714,5.89038],
          [117.43729,5.88353],
          [117.43506,5.88266],
          [117.43519,5.87598],
          [117.43367,5.87386],
          [117.43101,5.87429],
          [117.43018,5.87763],
          [117.42608,5.87967],
          [117.42277,5.87789],
          [117.428,5.87503],
          [117.42783,5.8736],
          [117.42425,5.87104],
          [117.42246,5.87173],
          [117.42229,5.87637],
          [117.42002,5.87919],
          [117.41806,5.87846],
          [117.42006,5.87633],
          [117.41689,5.87477],
          [117.42782,5.86173],
          [117.4285,5.85708],
          [117.4313,5.85595],
          [117.43441,5.8573],
          [117.43569,5.85317],
          [117.4381,5.85248],
          [117.43946,5.84455],
          [117.43462,5.83671],
          [117.42935,5.83827],
          [117.42887,5.83658],
          [117.426,5.83594],
          [117.42952,5.82735],
          [117.42365,5.82735],
          [117.41944,5.83122],
          [117.42208,5.83398],
          [117.42117,5.83814],
          [117.41843,5.83697],
          [117.41713,5.83086],
          [117.4138,5.83382],
          [117.40889,5.83231],
          [117.40877,5.83437],
          [117.41086,5.83593],
          [117.40459,5.83917],
          [117.40433,5.83709],
          [117.40695,5.83385],
          [117.40172,5.83501],
          [117.39807,5.83371],
          [117.39768,5.83189],
          [117.40199,5.82956],
          [117.39781,5.82774],
          [117.39076,5.82696],
          [117.38711,5.83281],
          [117.38241,5.83371],
          [117.37849,5.8306],
          [117.38267,5.82294],
          [117.36335,5.8184],
          ...
          [117.09703,5.89731],
          [117.10025,5.89731]
        ]
      ]
    ]
  }
}
